{
  "type": "FeatureCollection",
  "features": [
    {
      "type": "Feature",
      "properties": {
        "norad_id": 65729,
        "name": "DRAGONFLY",
        "group": "stations",
        "lat": -49.19605559218097,
        "lon": 114.71673335598506,
        "alt_km": 366.18616199308144,
        "timestamp": "2025-12-03T19:33:05.776257+00:00",
        "meta_object_name": "DRAGONFLY",
        "meta_object_id": "1998-067XH",
        "meta_epoch": "2025-12-02T23:59:20.731200",
        "meta_mean_motion": 15.68122428,
        "meta_eccentricity": 0.00065658,
        "meta_inclination": 51.6251,
        "meta_ra_of_asc_node": 185.4963,
        "meta_arg_of_pericenter": 216.9941,
        "meta_mean_anomaly": 143.0603,
        "meta_ephemeris_type": 0,
        "meta_classification_type": "U",
        "meta_norad_cat_id": 65729,
        "meta_element_set_no": 999,
        "meta_rev_at_epoch": 1163,
        "meta_bstar": 0.001375183,
        "meta_mean_motion_dot": 0.00158902,
        "meta_mean_motion_ddot": 0,
        "tle_line1": "1 65729U 98067XH  25336.99954550  .00158902  00000+0  13752-2 0  9998",
        "tle_line2": "2 65729  51.6251 185.4963 0006565 216.9941 143.0603 15.68122428 11638"
      },
      "geometry": {
        "type": "Point",
        "coordinates": [
          114.71673335598506,
          -49.19605559218097
        ]
      }
    },
    {
      "type": "Feature",
      "properties": {
        "norad_id": 65730,
        "name": "1998-067XJ",
        "group": "stations",
        "lat": 42.820361176935506,
        "lon": -137.76758595181371,
        "alt_km": 171.36155179457,
        "timestamp": "2025-12-03T19:33:05.776268+00:00",
        "meta_object_name": "1998-067XJ",
        "meta_object_id": "1998-067XJ",
        "meta_epoch": "2025-12-02T19:46:01.269984",
        "meta_mean_motion": 16.23931094,
        "meta_eccentricity": 0.00101147,
        "meta_inclination": 51.6061,
        "meta_ra_of_asc_node": 180.4655,
        "meta_arg_of_pericenter": 256.3912,
        "meta_mean_anomaly": 103.5981,
        "meta_ephemeris_type": 0,
        "meta_classification_type": "U",
        "meta_norad_cat_id": 65730,
        "meta_element_set_no": 999,
        "meta_rev_at_epoch": 1168,
        "meta_bstar": 0.002285911,
        "meta_mean_motion_dot": 0.06330363,
        "meta_mean_motion_ddot": 1.1931217e-05,
        "tle_line1": "1 65730U 98067XJ  25336.82362581  .06330363  11931-4  22859-2 0  9996",
        "tle_line2": "2 65730  51.6061 180.4655 0010114 256.3912 103.5981 16.23931094 11687"
      },
      "geometry": {
        "type": "Point",
        "coordinates": [
          -137.76758595181371,
          42.820361176935506
        ]
      }
    },
    {
      "type": "Feature",
      "properties": {
        "norad_id": 65731,
        "name": "1998-067XK",
        "group": "stations",
        "lat": 40.07576572636881,
        "lon": -39.36999366277345,
        "alt_km": 370.44612593323654,
        "timestamp": "2025-12-03T19:33:05.776279+00:00",
        "meta_object_name": "1998-067XK",
        "meta_object_id": "1998-067XK",
        "meta_epoch": "2025-12-03T06:44:54.504096",
        "meta_mean_motion": 15.63465607,
        "meta_eccentricity": 0.000585,
        "meta_inclination": 51.628,
        "meta_ra_of_asc_node": 185.1389,
        "meta_arg_of_pericenter": 190.2066,
        "meta_mean_anomaly": 169.881,
        "meta_ephemeris_type": 0,
        "meta_classification_type": "U",
        "meta_norad_cat_id": 65731,
        "meta_element_set_no": 999,
        "meta_rev_at_epoch": 1166,
        "meta_bstar": 0.0010076,
        "meta_mean_motion_dot": 0.0009565,
        "meta_mean_motion_ddot": 0,
        "tle_line1": "1 65731U 98067XK  25337.28118639  .00095650  00000+0  10076-2 0  9990",
        "tle_line2": "2 65731  51.6280 185.1389 0005850 190.2066 169.8810 15.63465607 11663"
      },
      "geometry": {
        "type": "Point",
        "coordinates": [
          -39.36999366277345,
          40.07576572636881
        ]
      }
    },
    {
      "type": "Feature",
      "properties": {
        "norad_id": 65732,
        "name": "RSP-03",
        "group": "stations",
        "lat": 11.47807620957249,
        "lon": -168.8285343428261,
        "alt_km": 374.49542094943354,
        "timestamp": "2025-12-03T19:33:05.776289+00:00",
        "meta_object_name": "RSP-03",
        "meta_object_id": "1998-067XL",
        "meta_epoch": "2025-12-03T11:49:48.936000",
        "meta_mean_motion": 15.65753404,
        "meta_eccentricity": 0.0006714,
        "meta_inclination": 51.6268,
        "meta_ra_of_asc_node": 183.5455,
        "meta_arg_of_pericenter": 194.5312,
        "meta_mean_anomaly": 165.5491,
        "meta_ephemeris_type": 0,
        "meta_classification_type": "U",
        "meta_norad_cat_id": 65732,
        "meta_element_set_no": 999,
        "meta_rev_at_epoch": 1171,
        "meta_bstar": 0.0011877,
        "meta_mean_motion_dot": 0.00124067,
        "meta_mean_motion_ddot": 0,
        "tle_line1": "1 65732U 98067XL  25337.49292750  .00124067  00000+0  11877-2 0  9996",
        "tle_line2": "2 65732  51.6268 183.5455 0006714 194.5312 165.5491 15.65753404 11718"
      },
      "geometry": {
        "type": "Point",
        "coordinates": [
          -168.8285343428261,
          11.47807620957249
        ]
      }
    },
    {
      "type": "Feature",
      "properties": {
        "norad_id": 65733,
        "name": "GHS-01",
        "group": "stations",
        "lat": 42.95175534221871,
        "lon": -46.588608276879015,
        "alt_km": 352.67865461581096,
        "timestamp": "2025-12-03T19:33:05.776300+00:00",
        "meta_object_name": "GHS-01",
        "meta_object_id": "1998-067XM",
        "meta_epoch": "2025-12-02T20:07:58.918368",
        "meta_mean_motion": 15.70056093,
        "meta_eccentricity": 0.00069943,
        "meta_inclination": 51.628,
        "meta_ra_of_asc_node": 185.9293,
        "meta_arg_of_pericenter": 215.3541,
        "meta_mean_anomaly": 144.6993,
        "meta_ephemeris_type": 0,
        "meta_classification_type": "U",
        "meta_norad_cat_id": 65733,
        "meta_element_set_no": 999,
        "meta_rev_at_epoch": 1162,
        "meta_bstar": 0.0014391205,
        "meta_mean_motion_dot": 0.00180652,
        "meta_mean_motion_ddot": 0,
        "tle_line1": "1 65733U 98067XM  25336.83887637  .00180652  00000+0  14391-2 0  9994",
        "tle_line2": "2 65733  51.6280 185.9293 0006994 215.3541 144.6993 15.70056093 11626"
      },
      "geometry": {
        "type": "Point",
        "coordinates": [
          -46.588608276879015,
          42.95175534221871
        ]
      }
    },
    {
      "type": "Feature",
      "properties": {
        "norad_id": 65941,
        "name": "YOTSUBA-KULOVER",
        "group": "stations",
        "lat": 50.08228434964033,
        "lon": -103.94603974399654,
        "alt_km": 386.9868486359828,
        "timestamp": "2025-12-03T19:33:05.776310+00:00",
        "meta_object_name": "YOTSUBA-KULOVER",
        "meta_object_id": "1998-067XN",
        "meta_epoch": "2025-12-02T21:39:48.604896",
        "meta_mean_motion": 15.57747884,
        "meta_eccentricity": 0.00021615,
        "meta_inclination": 51.6283,
        "meta_ra_of_asc_node": 189.3568,
        "meta_arg_of_pericenter": 168.1115,
        "meta_mean_anomaly": 191.9929,
        "meta_ephemeris_type": 0,
        "meta_classification_type": "U",
        "meta_norad_cat_id": 65941,
        "meta_element_set_no": 999,
        "meta_rev_at_epoch": 832,
        "meta_bstar": 0.0009688527,
        "meta_mean_motion_dot": 0.00073507,
        "meta_mean_motion_ddot": 0,
        "tle_line1": "1 65941U 98067XN  25336.90264589  .00073507  00000+0  96885-3 0  9997",
        "tle_line2": "2 65941  51.6283 189.3568 0002161 168.1115 191.9929 15.57747884  8324"
      },
      "geometry": {
        "type": "Point",
        "coordinates": [
          -103.94603974399654,
          50.08228434964033
        ]
      }
    },
    {
      "type": "Feature",
      "properties": {
        "norad_id": 65942,
        "name": "BOTAN",
        "group": "stations",
        "lat": -37.120461881411636,
        "lon": 147.4529023720359,
        "alt_km": 392.3220373293998,
        "timestamp": "2025-12-03T19:33:05.776321+00:00",
        "meta_object_name": "BOTAN",
        "meta_object_id": "1998-067XP",
        "meta_epoch": "2025-12-02T23:47:08.689920",
        "meta_mean_motion": 15.60340743,
        "meta_eccentricity": 0.00044311,
        "meta_inclination": 51.6288,
        "meta_ra_of_asc_node": 188.4479,
        "meta_arg_of_pericenter": 171.5775,
        "meta_mean_anomaly": 188.5294,
        "meta_ephemeris_type": 0,
        "meta_classification_type": "U",
        "meta_norad_cat_id": 65942,
        "meta_element_set_no": 999,
        "meta_rev_at_epoch": 834,
        "meta_bstar": 0.001291095,
        "meta_mean_motion_dot": 0.00108801,
        "meta_mean_motion_ddot": 0,
        "tle_line1": "1 65942U 98067XP  25336.99107280  .00108801  00000+0  12911-2 0  9994",
        "tle_line2": "2 65942  51.6288 188.4479 0004431 171.5775 188.5294 15.60340743  8349"
      },
      "geometry": {
        "type": "Point",
        "coordinates": [
          147.4529023720359,
          -37.120461881411636
        ]
      }
    }
  ]
}